$$SOE
2460728.500000000, A.D. 2025-Feb-22 00:00:00.0000, -2.558793422698273E+08, -1.729235469415644E+08, 1.661081044386747E+07,
2460735.500000000, A.D. 2025-Mar-01 00:00:00.0000, -2.485794353998930E+08, -1.816861616905894E+08, 2.086220981873945E+07,
2460742.500000000, A.D. 2025-Mar-08 00:00:00.0000, -2.408689919377687E+08, -1.901487464890316E+08, 2.507914574175090E+07,
2460749.500000000, A.D. 2025-Mar-15 00:00:00.0000, -2.327580128490995E+08, -1.982951669209543E+08, 2.925436862828211E+07,
2460756.500000000, A.D. 2025-Mar-22 00:00:00.0000, -2.242572109879901E+08, -2.061095091501184E+08, 3.338058642285774E+07,
2460763.500000000, A.D. 2025-Mar-29 00:00:00.0000, -2.153780227098058E+08, -2.135761061835090E+08, 3.745047113906732E+07,
2460770.500000000, A.D. 2025-Apr-05 00:00:00.0000, -2.061326174809395E+08, -2.206795649931567E+08, 4.145666596624881E+07,
2460777.500000000, A.D. 2025-Apr-12 00:00:00.0000, -1.965339072686034E+08, -2.274047944637653E+08, 4.539179318276999E+07,
2460784.500000000, A.D. 2025-Apr-19 00:00:00.0000, -1.865955557383713E+08, -2.337370351045502E+08, 4.924846287514316E+07,
2460791.500000000, A.D. 2025-Apr-26 00:00:00.0000, -1.763319868086659E+08, -2.396618907711138E+08, 5.301928247152915E+07,
2460798.500000000, A.D. 2025-May-03 00:00:00.0000, -1.657583922480455E+08, -2.451653624102274E+08, 5.669686712498344E+07,
2460805.500000000, A.D. 2025-May-10 00:00:00.0000, -1.548907380657929E+08, -2.502338838458815E+08, 6.027385098385262E+07,
2460812.500000000, A.D. 2025-May-17 00:00:00.0000, -1.437457694249611E+08, -2.548543596737489E+08, 6.374289938144060E+07,
2460819.500000000, A.D. 2025-May-24 00:00:00.0000, -1.323410136649437E+08, -2.590142053355750E+08, 6.709672196596792E+07,
2460826.500000000, A.D. 2025-May-31 00:00:00.0000, -1.206947807687666E+08, -2.627013890555513E+08, 7.032808679800321E+07,
2460833.500000000, A.D. 2025-Jun-07 00:00:00.0000, -1.088261614108236E+08, -2.659044743970414E+08, 7.342983558331296E+07,
2460840.500000000, A.D. 2025-Jun-14 00:00:00.0000, -9.675502466195118E+07, -2.686126640434088E+08, 7.639490022745007E+07,
2460847.500000000, A.D. 2025-Jun-21 00:00:00.0000, -8.450201383030976E+07, -2.708158479907572E+08, 7.921632035200106E+07,
2460854.500000000, A.D. 2025-Jun-28 00:00:00.0000, -7.208853699836729E+07, -2.725046542817494E+08, 8.188726164640735E+07,
2460861.500000000, A.D. 2025-Jul-05 00:00:00.0000, -5.953675345781139E+07, -2.736704999829337E+08, 8.440103538037369E+07,
2460868.500000000, A.D. 2025-Jul-12 00:00:00.0000, -4.686955691418997E+07, -2.743056430285927E+08, 8.675111911705938E+07,
2460875.500000000, A.D. 2025-Jul-19 00:00:00.0000, -3.411055495008657E+07, -2.744032352820518E+08, 8.893117854355274E+07,
2460882.500000000, A.D. 2025-Jul-26 00:00:00.0000, -2.128404421540777E+07, -2.739573766042581E+08, 9.093509035751943E+07,
2460889.500000000, A.D. 2025-Aug-02 00:00:00.0000, -8.414980960784176E+06, -2.729631695994026E+08, 9.275696615059847E+07,
2460896.500000000, A.D. 2025-Aug-09 00:00:00.0000, 4.471053418323316E+06, -2.714167747027853E+08, 9.439117721459731E+07,
2460903.500000000, A.D. 2025-Aug-16 00:00:00.0000, 1.734789219331868E+07, -2.693154652811736E+08, 9.583238017193323E+07,
2460910.500000000, A.D. 2025-Aug-23 00:00:00.0000, 3.018882902541423E+07, -2.666576822890305E+08, 9.707554329876246E+07,
2460917.500000000, A.D. 2025-Aug-30 00:00:00.0000, 4.296667015921568E+07, -2.634430872790166E+08, 9.811597344046363E+07,
2460924.500000000, A.D. 2025-Sep-06 00:00:00.0000, 5.565379185949586E+07, -2.596726122325307E+08, 9.894934357903370E+07,
2460931.500000000, A.D. 2025-Sep-13 00:00:00.0000, 6.822220156404065E+07, -2.553485081135925E+08, 9.957172082517879E+07,
2460938.500000000, A.D. 2025-Sep-20 00:00:00.0000, 8.064360611618905E+07, -2.504743931721207E+08, 9.997959420038819E+07,
2460945.500000000, A.D. 2025-Sep-27 00:00:00.0000, 9.288948816145794E+07, -2.450552972360914E+08, 1.001699021470620E+08,
2460952.500000000, A.D. 2025-Oct-04 00:00:00.0000, 1.049311886416331E+08, -2.390977007758119E+08, 1.001400597549787E+08,
2460959.500000000, A.D. 2025-Oct-11 00:00:00.0000, 1.167399948805686E+08, -2.326095689828276E+08, 9.988798539820647E+07,
2460966.500000000, A.D. 2025-Oct-18 00:00:00.0000, 1.282872343245447E+08, -2.256003804250483E+08, 9.941212645149845E+07,
2460973.500000000, A.D. 2025-Oct-25 00:00:00.0000, 1.395443737599699E+08, -2.180811495534374E+08, 9.871148377524598E+07,
2460980.500000000, A.D. 2025-Nov-01 00:00:00.0000, 1.504831236290885E+08, -2.100644423419491E+08, 9.778563465317096E+07,
2460987.500000000, A.D. 2025-Nov-08 00:00:00.0000, 1.610755469547455E+08, -2.015643844116806E+08, 9.663475385173352E+07,
2460994.500000000, A.D. 2025-Nov-15 00:00:00.0000, 1.712941723954224E+08, -1.925966610534613E+08, 9.525963245295331E+07,
2461001.500000000, A.D. 2025-Nov-22 00:00:00.0000, 1.811121111044999E+08, -1.831785083398918E+08, 9.366169411787687E+07,
2461008.500000000, A.D. 2025-Nov-29 00:00:00.0000, 1.905031764077893E+08, -1.733286936782873E+08, 9.184300857471050E+07,
2461015.500000000, A.D. 2025-Dec-06 00:00:00.0000, 1.994420030872993E+08, -1.630674855141124E+08, 8.980630222599241E+07,
2461022.500000000, A.D. 2025-Dec-13 00:00:00.0000, 2.079041656793323E+08, -1.524166152229075E+08, 8.755496526883897E+07,
2461029.500000000, A.D. 2025-Dec-20 00:00:00.0000, 2.158662981818956E+08, -1.413992299451061E+08, 8.509305482771814E+07,
2461036.500000000, A.D. 2025-Dec-27 00:00:00.0000, 2.233062129414670E+08, -1.300398336808034E+08, 8.242529418527357E+07,
2461043.500000000, A.D. 2026-Jan-03 00:00:00.0000, 2.302030160583039E+08, -1.183642173090799E+08, 7.955706801143783E+07,
2461050.500000000, A.D. 2026-Jan-10 00:00:00.0000, 2.365372181924950E+08, -1.063993784052816E+08, 7.649441338745143E+07,
2461057.500000000, A.D. 2026-Jan-17 00:00:00.0000, 2.422908397731606E+08, -9.417343129274400E+07, 7.324400651013818E+07,
2461064.500000000, A.D. 2026-Jan-24 00:00:00.0000, 2.474475094804748E+08, -8.171550780444638E+07, 6.981314504298365E+07,
2461071.500000000, A.D. 2026-Jan-31 00:00:00.0000, 2.519925548625811E+08, -6.905564941359490E+07, 6.620972614461379E+07,
2461078.500000000, A.D. 2026-Feb-07 00:00:00.0000, 2.559130840570259E+08, -5.622469159379897E+07, 6.244222025912271E+07,
2461085.500000000, A.D. 2026-Feb-14 00:00:00.0000, 2.591980578620141E+08, -4.325414137001196E+07, 5.851964079276013E+07,
2461092.500000000, A.D. 2026-Feb-21 00:00:00.0000, 2.618383516364458E+08, -3.017604854429373E+07, 5.445150988661759E+07,
2461099.500000000, A.D. 2026-Feb-28 00:00:00.0000, 2.638268051712664E+08, -1.702287059454481E+07, 5.024782073808350E+07,
2461106.500000000, A.D. 2026-Mar-07 00:00:00.0000, 2.651582578613458E+08, -3.827334432498593E+06, 4.591899682278693E+07,
2461113.500000000, A.D. 2026-Mar-14 00:00:00.0000, 2.658295715031640E+08, 9.377701354782395E+06, 4.147584794844265E+07,
2461120.500000000, A.D. 2026-Mar-21 00:00:00.0000, 2.658396422400919E+08, 2.255938535161675E+07, 3.692952364813787E+07,
2461127.500000000, A.D. 2026-Mar-28 00:00:00.0000, 2.651893995839175E+08, 3.568501291861093E+07, 3.229146465619624E+07,
2461134.500000000, A.D. 2026-Apr-04 00:00:00.0000, 2.638817920243990E+08, 4.872216423008300E+07, 2.757335293189283E+07,
2461141.500000000, A.D. 2026-Apr-11 00:00:00.0000, 2.619217597814988E+08, 6.163883906536038E+07, 2.278706067004004E+07,
2461148.500000000, A.D. 2026-Apr-18 00:00:00.0000, 2.593161953036927E+08, 7.440358710010937E+07, 1.794459878040266E+07,
2461155.500000000, A.D. 2026-Apr-25 00:00:00.0000, 2.560738921603835E+08, 8.698563255657727E+07, 1.305806532918920E+07,
2461162.500000000, A.D. 2026-May-02 00:00:00.0000, 2.522054831071626E+08, 9.935499213501123E+07, 8.139594424448431E+06,
2461169.500000000, A.D. 2026-May-09 00:00:00.0000, 2.477233683262869E+08, 1.114825852343339E+08, 3.201305996775858E+06,
2461176.500000000, A.D. 2026-May-16 00:00:00.0000, 2.426416352075930E+08, 1.233403358047107E+08, -1.744743108862258E+06,
2461183.500000000, A.D. 2026-May-23 00:00:00.0000, 2.369759707791886E+08, 1.349012661903795E+08, -6.686606249745443E+06,
2461190.500000000, A.D. 2026-May-30 00:00:00.0000, 2.307435658106481E+08, 1.461395827805725E+08, -1.161249172857322E+07,
2461197.500000000, A.D. 2026-Jun-06 00:00:00.0000, 2.239630114450886E+08, 1.570307498606650E+08, -1.651080508029125E+07,
2461204.500000000, A.D. 2026-Jun-13 00:00:00.0000, 2.166541932161551E+08, 1.675515516482963E+08, -2.137018895792159E+07,
2461211.500000000, A.D. 2026-Jun-20 00:00:00.0000, 2.088381831014563E+08, 1.776801453642631E+08, -2.617956011715421E+07,
2461218.500000000, A.D. 2026-Jun-27 00:00:00.0000, 2.005371290428844E+08, 1.873961050658229E+08, -3.092814320492098E+07,
2461225.500000000, A.D. 2026-Jul-04 00:00:00.0000, 1.917741430237895E+08, 1.966804556573539E+08, -3.560550129857565E+07,
2461232.500000000, A.D. 2026-Jul-11 00:00:00.0000, 1.825731889864080E+08, 2.055156972443733E+08, -4.020156316026393E+07,
2461239.500000000, A.D. 2026-Jul-18 00:00:00.0000, 1.729589716375528E+08, 2.138858202510104E+08, -4.470664718688213E+07,
2461246.500000000, A.D. 2026-Jul-25 00:00:00.0000, 1.629568270386534E+08, 2.217763117820465E+08, -4.911148207210531E+07,
2461253.500000000, A.D. 2026-Aug-01 00:00:00.0000, 1.525926158093425E+08, 2.291741537302797E+08, -5.340722424152526E+07,
2461260.500000000, A.D. 2026-Aug-08 00:00:00.0000, 1.418926198459888E+08, 2.360678131986461E+08, -5.758547217250534E+07,
2461267.500000000, A.D. 2026-Aug-15 00:00:00.0000, 1.308834435632564E+08, 2.424472263342657E+08, -6.163827772334781E+07,
2461274.500000000, A.D. 2026-Aug-22 00:00:00.0000, 1.195919193990631E+08, 2.483037774565739E+08, -6.555815445226912E+07,
2461281.500000000, A.D. 2026-Aug-29 00:00:00.0000, 1.080450156849834E+08, 2.536302727636279E+08, -6.933808298817810E+07,
2461288.500000000, A.D. 2026-Sep-05 00:00:00.0000, 9.626974931160051E+07, 2.584209064334868E+08, -7.297151406395900E+07,
2461295.500000000, A.D. 2026-Sep-12 00:00:00.0000, 8.429310587985553E+07, 2.626712222925452E+08, -7.645236943598507E+07,
$$EOE